[{"OBJECT_NAME":"ONEWEB-0335","OBJECT_ID":"2021-083R","EPOCH":"2026-05-05T00:26:43.698048","MEAN_MOTION":13.13471302,"ECCENTRICITY":0.0001749,"INCLINATION":87.8953,"RA_OF_ASC_NODE":328.8338,"ARG_OF_PERICENTER":93.1221,"MEAN_ANOMALY":267.0108,"EPHEMERIS_TYPE":0,"CLASSIFICATION_TYPE":"U","NORAD_CAT_ID":49201,"ELEMENT_SET_NO":999,"REV_AT_EPOCH":22525,"BSTAR":0.0010388,"MEAN_MOTION_DOT":3.92e-06,"MEAN_MOTION_DDOT":0.0},{"OBJECT_NAME":"ONEWEB-0336","OBJECT_ID":"2021-083S","EPOCH":"2026-05-05T01:34:59.805408","MEAN_MOTION":13.13471057,"ECCENTRICITY":0.0001715,"INCLINATION":87.895,"RA_OF_ASC_NODE":328.8204,"ARG_OF_PERICENTER":101.3,"MEAN_ANOMALY":258.8322,"EPHEMERIS_TYPE":0,"CLASSIFICATION_TYPE":"U","NORAD_CAT_ID":49202,"ELEMENT_SET_NO":999,"REV_AT_EPOCH":22525,"BSTAR":-0.00034647,"MEAN_MOTION_DOT":-1.14e-06,"MEAN_MOTION_DDOT":0.0},{"OBJECT_NAME":"ONEWEB-0337","OBJECT_ID":"2021-083T","EPOCH":"2026-05-05T01:49:25.883328","MEAN_MOTION":13.13471757,"ECCENTRICITY":0.0001576,"INCLINATION":87.8945,"RA_OF_ASC_NODE":328.8253,"ARG_OF_PERICENTER":91.6536,"MEAN_ANOMALY":268.4774,"EPHEMERIS_TYPE":0,"CLASSIFICATION_TYPE":"U","NORAD_CAT_ID":49203,"ELEMENT_SET_NO":999,"REV_AT_EPOCH":22525,"BSTAR":0.00062361,"MEAN_MOTION_DOT":2.4e-06,"MEAN_MOTION_DDOT":0.0},{"OBJECT_NAME":"ONEWEB-0338","OBJECT_ID":"2021-083U","EPOCH":"2026-05-04T22:27:43.007616","MEAN_MOTION":13.20770023,"ECCENTRICITY":0.0001836,"INCLINATION":87.9139,"RA_OF_ASC_NODE":283.082,"ARG_OF_PERICENTER":84.8447,"MEAN_ANOMALY":275.2896,"EPHEMERIS_TYPE":0,"CLASSIFICATION_TYPE":"U","NORAD_CAT_ID":49204,"ELEMENT_SET_NO":999,"REV_AT_EPOCH":23110,"BSTAR":0.00012616,"MEAN_MOTION_DOT":6.4e-07,"MEAN_MOTION_DDOT":0.0},{"OBJECT_NAME":"ONEWEB-0339","OBJECT_ID":"2021-083V","EPOCH":"2026-05-05T02:01:48.671904","MEAN_MOTION":13.13470681,"ECCENTRICITY":0.0001708,"INCLINATION":87.895,"RA_OF_ASC_NODE":328.8152,"ARG_OF_PERICENTER":77.2672,"MEAN_ANOMALY":282.8648,"EPHEMERIS_TYPE":0,"CLASSIFICATION_TYPE":"U","NORAD_CAT_ID":49205,"ELEMENT_SET_NO":999,"REV_AT_EPOCH":22523,"BSTAR":0.0008848500000000001,"MEAN_MOTION_DOT":3.36e-06,"MEAN_MOTION_DDOT":0.0},{"OBJECT_NAME":"ONEWEB-0340","OBJECT_ID":"2021-083W","EPOCH":"2026-05-05T00:51:19.741824","MEAN_MOTION":13.18683161,"ECCENTRICITY":0.0001743,"INCLINATION":87.9191,"RA_OF_ASC_NODE":344.0397,"ARG_OF_PERICENTER":89.1288,"MEAN_ANOMALY":271.0044,"EPHEMERIS_TYPE":0,"CLASSIFICATION_TYPE":"U","NORAD_CAT_ID":49206,"ELEMENT_SET_NO":999,"REV_AT_EPOCH":22428,"BSTAR":-0.00016875,"MEAN_MOTION_DOT":-5.4e-07,"MEAN_MOTION_DDOT":0.0},{"OBJECT_NAME":"ONEWEB-0341","OBJECT_ID":"2021-083X","EPOCH":"2026-05-05T01:01:03.372960","MEAN_MOTION":13.18686956,"ECCENTRICITY":0.0001279,"INCLINATION":87.9185,"RA_OF_ASC_NODE":344.0445,"ARG_OF_PERICENTER":88.9841,"MEAN_ANOMALY":271.1438,"EPHEMERIS_TYPE":0,"CLASSIFICATION_TYPE":"U","NORAD_CAT_ID":49207,"ELEMENT_SET_NO":999,"REV_AT_EPOCH":22430,"BSTAR":9.487100000000001e-05,"MEAN_MOTION_DOT":5e-07,"MEAN_MOTION_DDOT":0.0},{"OBJECT_NAME":"ONEWEB-0342","OBJECT_ID":"2021-083Y","EPOCH":"2026-05-04T22:36:49.019328","MEAN_MOTION":13.20770583,"ECCENTRICITY":0.0001777,"INCLINATION":87.915,"RA_OF_ASC_NODE":283.0644,"ARG_OF_PERICENTER":92.8598,"MEAN_ANOMALY":267.2738,"EPHEMERIS_TYPE":0,"CLASSIFICATION_TYPE":"U","NORAD_CAT_ID":49208,"ELEMENT_SET_NO":999,"REV_AT_EPOCH":23107,"BSTAR":0.00013209999999999999,"MEAN_MOTION_DOT":6.7e-07,"MEAN_MOTION_DDOT":0.0},{"OBJECT_NAME":"ONEWEB-0343","OBJECT_ID":"2021-083Z","EPOCH":"2026-05-05T01:13:10.762464","MEAN_MOTION":13.18685914,"ECCENTRICITY":0.0001646,"INCLINATION":87.919,"RA_OF_ASC_NODE":344.0401,"ARG_OF_PERICENTER":70.8924,"MEAN_ANOMALY":289.2386,"EPHEMERIS_TYPE":0,"CLASSIFICATION_TYPE":"U","NORAD_CAT_ID":49209,"ELEMENT_SET_NO":999,"REV_AT_EPOCH":22435,"BSTAR":-0.00064707,"MEAN_MOTION_DOT":-2.42e-06,"MEAN_MOTION_DDOT":0.0},{"OBJECT_NAME":"ONEWEB-0344","OBJECT_ID":"2021-083AA","EPOCH":"2026-05-05T01:54:30.177216","MEAN_MOTION":13.1347107,"ECCENTRICITY":0.0001408,"INCLINATION":87.8941,"RA_OF_ASC_NODE":328.8342,"ARG_OF_PERICENTER":91.3061,"MEAN_ANOMALY":268.8229,"EPHEMERIS_TYPE":0,"CLASSIFICATION_TYPE":"U","NORAD_CAT_ID":49210,"ELEMENT_SET_NO":999,"REV_AT_EPOCH":22523,"BSTAR":0.0006812200000000001,"MEAN_MOTION_DOT":2.62e-06,"MEAN_MOTION_DDOT":0.0},{"OBJECT_NAME":"ONEWEB-0345","OBJECT_ID":"2021-083AB","EPOCH":"2026-05-05T01:42:17.051616","MEAN_MOTION":13.13472402,"ECCENTRICITY":0.0001409,"INCLINATION":87.8956,"RA_OF_ASC_NODE":328.8098,"ARG_OF_PERICENTER":89.6407,"MEAN_ANOMALY":270.4883,"EPHEMERIS_TYPE":0,"CLASSIFICATION_TYPE":"U","NORAD_CAT_ID":49211,"ELEMENT_SET_NO":999,"REV_AT_EPOCH":22524,"BSTAR":9.775300000000001e-05,"MEAN_MOTION_DOT":4.8e-07,"MEAN_MOTION_DDOT":0.0},{"OBJECT_NAME":"ONEWEB-0346","OBJECT_ID":"2021-083AC","EPOCH":"2026-05-05T01:08:19.692960","MEAN_MOTION":13.18684771,"ECCENTRICITY":0.000208,"INCLINATION":87.918,"RA_OF_ASC_NODE":344.0439,"ARG_OF_PERICENTER":103.4083,"MEAN_ANOMALY":256.7281,"EPHEMERIS_TYPE":0,"CLASSIFICATION_TYPE":"U","NORAD_CAT_ID":49212,"ELEMENT_SET_NO":999,"REV_AT_EPOCH":22429,"BSTAR":-0.00021384,"MEAN_MOTION_DOT":-7.1e-07,"MEAN_MOTION_DDOT":0.0},{"OBJECT_NAME":"ONEWEB-0348","OBJECT_ID":"2021-083AD","EPOCH":"2026-05-04T22:23:10.068288","MEAN_MOTION":13.20770516,"ECCENTRICITY":0.0001791,"INCLINATION":87.9152,"RA_OF_ASC_NODE":283.0698,"ARG_OF_PERICENTER":113.3154,"MEAN_ANOMALY":246.8168,"EPHEMERIS_TYPE":0,"CLASSIFICATION_TYPE":"U","NORAD_CAT_ID":49213,"ELEMENT_SET_NO":999,"REV_AT_EPOCH":23110,"BSTAR":1.0448e-05,"MEAN_MOTION_DOT":1.7e-07,"MEAN_MOTION_DDOT":0.0},{"OBJECT_NAME":"ONEWEB-0350","OBJECT_ID":"2021-083AE","EPOCH":"2026-05-05T01:55:42.110400","MEAN_MOTION":13.1347085,"ECCENTRICITY":0.0001419,"INCLINATION":87.8962,"RA_OF_ASC_NODE":328.8089,"ARG_OF_PERICENTER":94.174,"MEAN_ANOMALY":265.9552,"EPHEMERIS_TYPE":0,"CLASSIFICATION_TYPE":"U","NORAD_CAT_ID":49214,"ELEMENT_SET_NO":999,"REV_AT_EPOCH":22527,"BSTAR":0.00068915,"MEAN_MOTION_DOT":2.64e-06,"MEAN_MOTION_DDOT":0.0},{"OBJECT_NAME":"ONEWEB-0351","OBJECT_ID":"2021-083AF","EPOCH":"2026-05-04T22:13:51.907872","MEAN_MOTION":13.20774644,"ECCENTRICITY":0.0001296,"INCLINATION":87.9151,"RA_OF_ASC_NODE":283.0697,"ARG_OF_PERICENTER":69.3802,"MEAN_ANOMALY":290.747,"EPHEMERIS_TYPE":0,"CLASSIFICATION_TYPE":"U","NORAD_CAT_ID":49215,"ELEMENT_SET_NO":999,"REV_AT_EPOCH":23106,"BSTAR":0.00021035000000000002,"MEAN_MOTION_DOT":9.9e-07,"MEAN_MOTION_DDOT":0.0},{"OBJECT_NAME":"ONEWEB-0352","OBJECT_ID":"2021-083AG","EPOCH":"2026-05-05T01:27:38.704896","MEAN_MOTION":13.1347078,"ECCENTRICITY":0.0001623,"INCLINATION":87.8952,"RA_OF_ASC_NODE":328.825,"ARG_OF_PERICENTER":74.4402,"MEAN_ANOMALY":285.6907,"EPHEMERIS_TYPE":0,"CLASSIFICATION_TYPE":"U","NORAD_CAT_ID":49216,"ELEMENT_SET_NO":999,"REV_AT_EPOCH":22536,"BSTAR":-0.0012609000000000001,"MEAN_MOTION_DOT":-4.48e-06,"MEAN_MOTION_DDOT":0.0},{"OBJECT_NAME":"ONEWEB-0354","OBJECT_ID":"2021-083AH","EPOCH":"2026-05-04T22:50:25.357632","MEAN_MOTION":13.20770615,"ECCENTRICITY":0.0001609,"INCLINATION":87.9155,"RA_OF_ASC_NODE":283.0634,"ARG_OF_PERICENTER":108.8012,"MEAN_ANOMALY":251.3296,"EPHEMERIS_TYPE":0,"CLASSIFICATION_TYPE":"U","NORAD_CAT_ID":49217,"ELEMENT_SET_NO":999,"REV_AT_EPOCH":23110,"BSTAR":-0.00082129,"MEAN_MOTION_DOT":-3.21e-06,"MEAN_MOTION_DDOT":0.0},{"OBJECT_NAME":"ONEWEB-0355","OBJECT_ID":"2021-083AJ","EPOCH":"2026-05-05T00:19:37.602624","MEAN_MOTION":13.13470448,"ECCENTRICITY":0.0001531,"INCLINATION":87.8938,"RA_OF_ASC_NODE":328.8399,"ARG_OF_PERICENTER":82.7709,"MEAN_ANOMALY":277.3595,"EPHEMERIS_TYPE":0,"CLASSIFICATION_TYPE":"U","NORAD_CAT_ID":49218,"ELEMENT_SET_NO":999,"REV_AT_EPOCH":22523,"BSTAR":0.0010463,"MEAN_MOTION_DOT":3.95e-06,"MEAN_MOTION_DDOT":0.0},{"OBJECT_NAME":"ONEWEB-0357","OBJECT_ID":"2021-083AK","EPOCH":"2026-05-04T22:45:53.854272","MEAN_MOTION":13.20770235,"ECCENTRICITY":0.0001694,"INCLINATION":87.9154,"RA_OF_ASC_NODE":283.0585,"ARG_OF_PERICENTER":91.3614,"MEAN_ANOMALY":268.7714,"EPHEMERIS_TYPE":0,"CLASSIFICATION_TYPE":"U","NORAD_CAT_ID":49219,"ELEMENT_SET_NO":999,"REV_AT_EPOCH":23110,"BSTAR":-9.0511e-06,"MEAN_MOTION_DOT":9e-08,"MEAN_MOTION_DDOT":0.0},{"OBJECT_NAME":"ONEWEB-0332","OBJECT_ID":"2021-090A","EPOCH":"2026-05-04T23:36:34.684992","MEAN_MOTION":13.14502929,"ECCENTRICITY":0.0001869,"INCLINATION":87.8924,"RA_OF_ASC_NODE":298.3304,"ARG_OF_PERICENTER":86.81,"MEAN_ANOMALY":273.3244,"EPHEMERIS_TYPE":0,"CLASSIFICATION_TYPE":"U","NORAD_CAT_ID":49279,"ELEMENT_SET_NO":999,"REV_AT_EPOCH":22190,"BSTAR":-5.221900000000001e-05,"MEAN_MOTION_DOT":-7e-08,"MEAN_MOTION_DDOT":0.0},{"OBJECT_NAME":"ONEWEB-0347","OBJECT_ID":"2021-090B","EPOCH":"2026-05-04T22:32:14.892864","MEAN_MOTION":13.20774541,"ECCENTRICITY":0.0001981,"INCLINATION":87.9149,"RA_OF_ASC_NODE":283.0689,"ARG_OF_PERICENTER":92.9045,"MEAN_ANOMALY":267.2315,"EPHEMERIS_TYPE":0,"CLASSIFICATION_TYPE":"U","NORAD_CAT_ID":49280,"ELEMENT_SET_NO":999,"REV_AT_EPOCH":22533,"BSTAR":0.00021462,"MEAN_MOTION_DOT":1e-06,"MEAN_MOTION_DDOT":0.0},{"OBJECT_NAME":"ONEWEB-0349","OBJECT_ID":"2021-090C","EPOCH":"2026-05-04T23:17:41.751168","MEAN_MOTION":13.20770099,"ECCENTRICITY":0.0001777,"INCLINATION":87.9151,"RA_OF_ASC_NODE":283.063,"ARG_OF_PERICENTER":96.6033,"MEAN_ANOMALY":263.5303,"EPHEMERIS_TYPE":0,"CLASSIFICATION_TYPE":"U","NORAD_CAT_ID":49281,"ELEMENT_SET_NO":999,"REV_AT_EPOCH":22412,"BSTAR":-0.00015737000000000002,"MEAN_MOTION_DOT":-5.1e-07,"MEAN_MOTION_DDOT":0.0},{"OBJECT_NAME":"ONEWEB-0353","OBJECT_ID":"2021-090D","EPOCH":"2026-05-04T23:25:09.633216","MEAN_MOTION":13.14503299,"ECCENTRICITY":0.0001955,"INCLINATION":87.8929,"RA_OF_ASC_NODE":298.3265,"ARG_OF_PERICENTER":86.9585,"MEAN_ANOMALY":273.1768,"EPHEMERIS_TYPE":0,"CLASSIFICATION_TYPE":"U","NORAD_CAT_ID":49282,"ELEMENT_SET_NO":999,"REV_AT_EPOCH":22190,"BSTAR":-0.00046503,"MEAN_MOTION_DOT":-1.6e-06,"MEAN_MOTION_DDOT":0.0}]